{"type": "FeatureCollection", "features": [ {"type": "Feature", "properties": {"norad_id": 66052, "name": "HRC MONOBLOCK CAMERA", "group": "stations", "lat": 30.972509388362443, "lon": -88.0575554468849, "alt_km": 398.9759535963394, "timestamp": "2025-12-16T23:36:34.944294+00:00", "meta": {"OBJECT_NAME": "HRC MONOBLOCK CAMERA", "OBJECT_ID": "1998-067XR", "EPOCH": "2025-12-15T22:19:37.394688", "MEAN_MOTION": 15.54370373, "ECCENTRICITY": 0.00028854, "INCLINATION": 51.6289, "RA_OF_ASC_NODE": 125.5959, "ARG_OF_PERICENTER": 198.9504, "MEAN_ANOMALY": 161.1379, "EPHEMERIS_TYPE": 0, "CLASSIFICATION_TYPE": "U", "NORAD_CAT_ID": 66052, "ELEMENT_SET_NO": 999, "REV_AT_EPOCH": 933, "BSTAR": 0.00046656817, "MEAN_MOTION_DOT": 0.00030802, "MEAN_MOTION_DDOT": 0}, "tle": {"line1": "1 66052U 98067XR  25349.93029392  .00030802  00000+0  46657-3 0  9992", "line2": "2 66052  51.6289 125.5959 0002885 198.9504 161.1379 15.54370373  9338"}}, "geometry": {"type": "Point", "coordinates": [-88.0575554468849, 30.972509388362443]}}, {"type": "Feature", "properties": {"norad_id": 66174, "name": "HTV-X1", "group": "stations", "lat": -30.37048029036626, "lon": 93.79672666189761, "alt_km": 420.46643542720994, "timestamp": "2025-12-16T23:36:34.944305+00:00", "meta": {"OBJECT_NAME": "HTV-X1", "OBJECT_ID": "2025-241A", "EPOCH": "2025-12-16T02:06:50.626944", "MEAN_MOTION": 15.49613604, "ECCENTRICITY": 0.00031739, "INCLINATION": 51.6306, "RA_OF_ASC_NODE": 125.8981, "ARG_OF_PERICENTER": 255.6781, "MEAN_ANOMALY": 104.3856, "EPHEMERIS_TYPE": 0, "CLASSIFICATION_TYPE": "U", "NORAD_CAT_ID": 66174, "ELEMENT_SET_NO": 999, "REV_AT_EPOCH": 51, "BSTAR": 0.00012170727, "MEAN_MOTION_DOT": 6.404e-05, "MEAN_MOTION_DDOT": 0}, "tle": {"line1": "1 66174U 25241A   25350.08808596  .00006404  00000+0  12171-3 0  9995", "line2": "2 66174  51.6306 125.8981 0003173 255.6781 104.3856 15.49613604   511"}}, "geometry": {"type": "Point", "coordinates": [93.79672666189761, -30.37048029036626]}}, {"type": "Feature", "properties": {"norad_id": 66515, "name": "SZ-21 MODULE", "group": "stations", "lat": -9.595332515278162, "lon": -178.8157686145719, "alt_km": 380.5912545708097, "timestamp": "2025-12-16T23:36:34.944315+00:00", "meta": {"OBJECT_NAME": "SZ-21 MODULE", "OBJECT_ID": "2025-246C", "EPOCH": "2025-12-16T01:18:26.404128", "MEAN_MOTION": 15.62659653, "ECCENTRICITY": 0.00061121, "INCLINATION": 41.4775, "RA_OF_ASC_NODE": 355.8239, "ARG_OF_PERICENTER": 277.4076, "MEAN_ANOMALY": 82.6069, "EPHEMERIS_TYPE": 0, "CLASSIFICATION_TYPE": "U", "NORAD_CAT_ID": 66515, "ELEMENT_SET_NO": 999, "REV_AT_EPOCH": 496, "BSTAR": 0.00024372704, "MEAN_MOTION_DOT": 0.00022201, "MEAN_MOTION_DDOT": 0}, "tle": {"line1": "1 66515U 25246C   25350.05447227  .00022201  00000+0  24373-3 0  9996", "line2": "2 66515  41.4775 355.8239 0006112 277.4076  82.6069 15.62659653  4969"}}, "geometry": {"type": "Point", "coordinates": [-178.8157686145719, -9.595332515278162]}}, {"type": "Feature", "properties": {"norad_id": 66645, "name": "SHENZHOU-22", "group": "stations", "lat": -32.97026244131481, "lon": -141.79476795637603, "alt_km": 397.4623921807497, "timestamp": "2025-12-16T23:36:34.944328+00:00", "meta": {"OBJECT_NAME": "SHENZHOU-22", "OBJECT_ID": "2025-272A", "EPOCH": "2025-12-16T07:14:05.691264", "MEAN_MOTION": 15.59326293, "ECCENTRICITY": 0.00078559, "INCLINATION": 41.4684, "RA_OF_ASC_NODE": 355.0821, "ARG_OF_PERICENTER": 60.8888, "MEAN_ANOMALY": 299.2736, "EPHEMERIS_TYPE": 0, "CLASSIFICATION_TYPE": "U", "NORAD_CAT_ID": 66645, "ELEMENT_SET_NO": 999, "REV_AT_EPOCH": 26357, "BSTAR": 0.00021422181, "MEAN_MOTION_DOT": 0.00017088, "MEAN_MOTION_DDOT": 0}, "tle": {"line1": "1 66645U 25272A   25350.30145476  .00017088  00000+0  21422-3 0  9997", "line2": "2 66645  41.4684 355.0821 0007855  60.8888 299.2736 15.59326293263579"}}, "geometry": {"type": "Point", "coordinates": [-141.79476795637603, -32.97026244131481]}}, {"type": "Feature", "properties": {"norad_id": 66664, "name": "SOYUZ-MS 28", "group": "stations", "lat": -30.370478766546686, "lon": 93.79672849117313, "alt_km": 420.46643540277364, "timestamp": "2025-12-16T23:36:34.944339+00:00", "meta": {"OBJECT_NAME": "SOYUZ-MS 28", "OBJECT_ID": "2025-275A", "EPOCH": "2025-12-16T02:06:50.626944", "MEAN_MOTION": 15.49613604, "ECCENTRICITY": 0.00031739, "INCLINATION": 51.6306, "RA_OF_ASC_NODE": 125.8981, "ARG_OF_PERICENTER": 255.6781, "MEAN_ANOMALY": 104.3856, "EPHEMERIS_TYPE": 0, "CLASSIFICATION_TYPE": "U", "NORAD_CAT_ID": 66664, "ELEMENT_SET_NO": 999, "REV_AT_EPOCH": 128, "BSTAR": 0.00012170727, "MEAN_MOTION_DOT": 6.404e-05, "MEAN_MOTION_DDOT": 0}, "tle": {"line1": "1 66664U 25275A   25350.08808596  .00006404  00000+0  12171-3 0  9996", "line2": "2 66664  51.6306 125.8981 0003173 255.6781 104.3856 15.49613604  1280"}}, "geometry": {"type": "Point", "coordinates": [93.79672849117313, -30.370478766546686]}}, {"type": "Feature", "properties": {"norad_id": 66906, "name": "1998-067XS", "group": "stations", "lat": 4.784827705599445, "lon": 125.16736304721839, "alt_km": 416.346309984403, "timestamp": "2025-12-16T23:36:34.944349+00:00", "meta": {"OBJECT_NAME": "1998-067XS", "OBJECT_ID": "1998-067XS", "EPOCH": "2025-12-15T16:39:04.886784", "MEAN_MOTION": 15.50732342, "ECCENTRICITY": 0.00032898, "INCLINATION": 51.6303, "RA_OF_ASC_NODE": 127.7667, "ARG_OF_PERICENTER": 216.5725, "MEAN_ANOMALY": 143.504, "EPHEMERIS_TYPE": 0, "CLASSIFICATION_TYPE": "U", "NORAD_CAT_ID": 66906, "ELEMENT_SET_NO": 999, "REV_AT_EPOCH": 207, "BSTAR": 0.00035286566, "MEAN_MOTION_DOT": 0.00020263, "MEAN_MOTION_DDOT": 0}, "tle": {"line1": "1 66906U 98067XS  25349.69380656  .00020263  00000+0  35287-3 0  9993", "line2": "2 66906  51.6303 127.7667 0003289 216.5725 143.5040 15.50732342  2071"}}, "geometry": {"type": "Point", "coordinates": [125.16736304721839, 4.784827705599445]}}, {"type": "Feature", "properties": {"norad_id": 66907, "name": "1998-067XT", "group": "stations", "lat": 28.361955347946232, "lon": 146.62272409446953, "alt_km": 409.83632196570943, "timestamp": "2025-12-16T23:36:34.944359+00:00", "meta": {"OBJECT_NAME": "1998-067XT", "OBJECT_ID": "1998-067XT", "EPOCH": "2025-12-15T19:37:52.461984", "MEAN_MOTION": 15.51845045, "ECCENTRICITY": 0.00041213, "INCLINATION": 51.6296, "RA_OF_ASC_NODE": 127.0953, "ARG_OF_PERICENTER": 244.2963, "MEAN_ANOMALY": 115.7601, "EPHEMERIS_TYPE": 0, "CLASSIFICATION_TYPE": "U", "NORAD_CAT_ID": 66907, "ELEMENT_SET_NO": 999, "REV_AT_EPOCH": 209, "BSTAR": 0.00082636885, "MEAN_MOTION_DOT": 0.0005023, "MEAN_MOTION_DDOT": 0}, "tle": {"line1": "1 66907U 98067XT  25349.81796831  .00050230  00000+0  82637-3 0  9992", "line2": "2 66907  51.6296 127.0953 0004121 244.2963 115.7601 15.51845045  2094"}}, "geometry": {"type": "Point", "coordinates": [146.62272409446953, 28.361955347946232]}}, {"type": "Feature", "properties": {"norad_id": 66908, "name": "1998-067XU", "group": "stations", "lat": 30.605461563579617, "lon": 149.24125637619474, "alt_km": 409.37258225643563, "timestamp": "2025-12-16T23:36:34.944370+00:00", "meta": {"OBJECT_NAME": "1998-067XU", "OBJECT_ID": "1998-067XU", "EPOCH": "2025-12-15T18:04:25.292064", "MEAN_MOTION": 15.51929885, "ECCENTRICITY": 0.00042378, "INCLINATION": 51.6291, "RA_OF_ASC_NODE": 127.4116, "ARG_OF_PERICENTER": 243.4196, "MEAN_ANOMALY": 116.636, "EPHEMERIS_TYPE": 0, "CLASSIFICATION_TYPE": "U", "NORAD_CAT_ID": 66908, "ELEMENT_SET_NO": 999, "REV_AT_EPOCH": 208, "BSTAR": 0.00081150303, "MEAN_MOTION_DOT": 0.00049466, "MEAN_MOTION_DDOT": 0}, "tle": {"line1": "1 66908U 98067XU  25349.75307051  .00049466  00000+0  81150-3 0  9996", "line2": "2 66908  51.6291 127.4116 0004237 243.4196 116.6360 15.51929885  2088"}}, "geometry": {"type": "Point", "coordinates": [149.24125637619474, 30.605461563579617]}}, {"type": "Feature", "properties": {"norad_id": 66909, "name": "SILVERSAT", "group": "stations", "lat": 33.21041808290025, "lon": 152.5283221433329, "alt_km": 408.57164319913136, "timestamp": "2025-12-16T23:36:34.944383+00:00", "meta": {"OBJECT_NAME": "SILVERSAT", "OBJECT_ID": "1998-067XV", "EPOCH": "2025-12-15T14:58:08.164704", "MEAN_MOTION": 15.52037636, "ECCENTRICITY": 0.00041166, "INCLINATION": 51.6296, "RA_OF_ASC_NODE": 128.048, "ARG_OF_PERICENTER": 244.867, "MEAN_ANOMALY": 115.1892, "EPHEMERIS_TYPE": 0, "CLASSIFICATION_TYPE": "U", "NORAD_CAT_ID": 66909, "ELEMENT_SET_NO": 999, "REV_AT_EPOCH": 206, "BSTAR": 0.00079995468, "MEAN_MOTION_DOT": 0.00048941, "MEAN_MOTION_DDOT": 0}, "tle": {"line1": "1 66909U 98067XV  25349.62370561  .00048941  00000+0  79995-3 0  9990", "line2": "2 66909  51.6296 128.0480 0004116 244.8670 115.1892 15.52037636  2060"}}, "geometry": {"type": "Point", "coordinates": [152.5283221433329, 33.21041808290025]}}, {"type": "Feature", "properties": {"norad_id": 66910, "name": "1998-067XW", "group": "stations", "lat": 39.381193156909184, "lon": 161.83530843334051, "alt_km": 408.1035215134634, "timestamp": "2025-12-16T23:36:34.944393+00:00", "meta": {"OBJECT_NAME": "1998-067XW", "OBJECT_ID": "1998-067XW", "EPOCH": "2025-12-15T16:28:26.170464", "MEAN_MOTION": 15.52120253, "ECCENTRICITY": 0.00047674, "INCLINATION": 51.6293, "RA_OF_ASC_NODE": 127.717, "ARG_OF_PERICENTER": 223.5527, "MEAN_ANOMALY": 136.5086, "EPHEMERIS_TYPE": 0, "CLASSIFICATION_TYPE": "U", "NORAD_CAT_ID": 66910, "ELEMENT_SET_NO": 999, "REV_AT_EPOCH": 207, "BSTAR": 0.00072313444, "MEAN_MOTION_DOT": 0.00044307, "MEAN_MOTION_DDOT": 0}, "tle": {"line1": "1 66910U 98067XW  25349.68641401  .00044307  00000+0  72313-3 0  9991", "line2": "2 66910  51.6293 127.7170 0004767 223.5527 136.5086 15.52120253  2079"}}, "geometry": {"type": "Point", "coordinates": [161.83530843334051, 39.381193156909184]}}]}